CCSDS_OMM_VERS = 2.0
CREATION_DATE  = 
ORIGINATOR     = 

OBJECT_NAME    = SL-14 R/B
OBJECT_ID      = 1986-046B
CENTER_NAME    = EARTH
REF_FRAME      = TEME
TIME_SYSTEM    = UTC
MEAN_ELEMENT_THEORY = SGP/SGP4

EPOCH          = 2026-03-01T04:27:38.013696
MEAN_MOTION    = 14.85580505
ECCENTRICITY   = .0021573
INCLINATION    = 82.4786
RA_OF_ASC_NODE = 88.2195
ARG_OF_PERICENTER = 255.1382
MEAN_ANOMALY   = 104.7445

EPHEMERIS_TYPE = 0
CLASSIFICATION_TYPE = U
NORAD_CAT_ID   = 16792
ELEMENT_SET_NO = 999
REV_AT_EPOCH   = 12514
BSTAR          = .54820462E-4
MEAN_MOTION_DOT = .5E-5
MEAN_MOTION_DDOT = 0

CCSDS_OMM_VERS = 2.0
CREATION_DATE  = 
ORIGINATOR     = 

OBJECT_NAME    = SL-14 R/B
OBJECT_ID      = 1986-055B
CENTER_NAME    = EARTH
REF_FRAME      = TEME
TIME_SYSTEM    = UTC
MEAN_ELEMENT_THEORY = SGP/SGP4

EPOCH          = 2026-03-01T05:57:49.453920
MEAN_MOTION    = 14.85633564
ECCENTRICITY   = .00189275
INCLINATION    = 82.5217
RA_OF_ASC_NODE = 134.6074
ARG_OF_PERICENTER = 4.9210
MEAN_ANOMALY   = 53.1722

EPHEMERIS_TYPE = 0
CLASSIFICATION_TYPE = U
NORAD_CAT_ID   = 16882
ELEMENT_SET_NO = 999
REV_AT_EPOCH   = 11811
BSTAR          = .58613031E-4
MEAN_MOTION_DOT = .533E-5
MEAN_MOTION_DDOT = 0

CCSDS_OMM_VERS = 2.0
CREATION_DATE  = 
ORIGINATOR     = 

OBJECT_NAME    = AJISAI (EGS)
OBJECT_ID      = 1986-061A
CENTER_NAME    = EARTH
REF_FRAME      = TEME
TIME_SYSTEM    = UTC
MEAN_ELEMENT_THEORY = SGP/SGP4

EPOCH          = 2026-03-01T06:52:26.872896
MEAN_MOTION    = 12.44515510
ECCENTRICITY   = .00112434
INCLINATION    = 50.0081
RA_OF_ASC_NODE = 119.1886
ARG_OF_PERICENTER = 265.3562
MEAN_ANOMALY   = 178.1299

EPHEMERIS_TYPE = 0
CLASSIFICATION_TYPE = U
NORAD_CAT_ID   = 16908
ELEMENT_SET_NO = 999
REV_AT_EPOCH   = 46695
BSTAR          = .97809187E-4
MEAN_MOTION_DOT = -.83E-6
MEAN_MOTION_DDOT = 0

CCSDS_OMM_VERS = 2.0
CREATION_DATE  = 
ORIGINATOR     = 

OBJECT_NAME    = COSMOS 1812
OBJECT_ID      = 1987-003A
CENTER_NAME    = EARTH
REF_FRAME      = TEME
TIME_SYSTEM    = UTC
MEAN_ELEMENT_THEORY = SGP/SGP4

EPOCH          = 2026-03-01T02:03:09.689184
MEAN_MOTION    = 16.16461233
ECCENTRICITY   = .00061915
INCLINATION    = 82.4736
RA_OF_ASC_NODE = 205.4843
ARG_OF_PERICENTER = 288.5601
MEAN_ANOMALY   = 71.5013

EPHEMERIS_TYPE = 0
CLASSIFICATION_TYPE = U
NORAD_CAT_ID   = 17295
ELEMENT_SET_NO = 999
REV_AT_EPOCH   = 14309
BSTAR          = .81083203E-3
MEAN_MOTION_DOT = .1151834E-1
MEAN_MOTION_DDOT = .95835295E-3

CCSDS_OMM_VERS = 2.0
CREATION_DATE  = 
ORIGINATOR     = 

OBJECT_NAME    = SL-14 R/B
OBJECT_ID      = 1987-024B
CENTER_NAME    = EARTH
REF_FRAME      = TEME
TIME_SYSTEM    = UTC
MEAN_ELEMENT_THEORY = SGP/SGP4

EPOCH          = 2026-03-01T03:43:14.767392
MEAN_MOTION    = 14.86122458
ECCENTRICITY   = .00167351
INCLINATION    = 82.5255
RA_OF_ASC_NODE = 100.7873
ARG_OF_PERICENTER = 290.7929
MEAN_ANOMALY   = 69.1494

EPHEMERIS_TYPE = 0
CLASSIFICATION_TYPE = U
NORAD_CAT_ID   = 17567
ELEMENT_SET_NO = 999
REV_AT_EPOCH   = 8686
BSTAR          = .50373066E-4
MEAN_MOTION_DOT = .466E-5
MEAN_MOTION_DDOT = 0

CCSDS_OMM_VERS = 2.0
CREATION_DATE  = 
ORIGINATOR     = 

OBJECT_NAME    = COSMOS 1833
OBJECT_ID      = 1987-027A
CENTER_NAME    = EARTH
REF_FRAME      = TEME
TIME_SYSTEM    = UTC
MEAN_ELEMENT_THEORY = SGP/SGP4

EPOCH          = 2026-03-01T05:22:29.009568
MEAN_MOTION    = 14.13056468
ECCENTRICITY   = .00246283
INCLINATION    = 70.9233
RA_OF_ASC_NODE = 343.8099
ARG_OF_PERICENTER = 226.1993
MEAN_ANOMALY   = 133.7092

EPHEMERIS_TYPE = 0
CLASSIFICATION_TYPE = U
NORAD_CAT_ID   = 17589
ELEMENT_SET_NO = 999
REV_AT_EPOCH   = 912
BSTAR          = -.41764801E-4
MEAN_MOTION_DOT = -.126E-5
MEAN_MOTION_DDOT = 0

CCSDS_OMM_VERS = 2.0
CREATION_DATE  = 
ORIGINATOR     = 

OBJECT_NAME    = SL-16 R/B
OBJECT_ID      = 1987-027B
CENTER_NAME    = EARTH
REF_FRAME      = TEME
TIME_SYSTEM    = UTC
MEAN_ELEMENT_THEORY = SGP/SGP4

EPOCH          = 2026-03-01T01:56:36.533760
MEAN_MOTION    = 14.17166961
ECCENTRICITY   = .00038373
INCLINATION    = 71.0023
RA_OF_ASC_NODE = 294.6369
ARG_OF_PERICENTER = 160.4825
MEAN_ANOMALY   = 199.6446

EPHEMERIS_TYPE = 0
CLASSIFICATION_TYPE = U
NORAD_CAT_ID   = 17590
ELEMENT_SET_NO = 999
REV_AT_EPOCH   = 1412
BSTAR          = -.54214317E-4
MEAN_MOTION_DOT = -.157E-5
MEAN_MOTION_DDOT = 0

CCSDS_OMM_VERS = 2.0
CREATION_DATE  = 
ORIGINATOR     = 

OBJECT_NAME    = SL-14 R/B
OBJECT_ID      = 1987-038B
CENTER_NAME    = EARTH
REF_FRAME      = TEME
TIME_SYSTEM    = UTC
MEAN_ELEMENT_THEORY = SGP/SGP4

EPOCH          = 2026-03-01T03:29:40.780896
MEAN_MOTION    = 14.85360254
ECCENTRICITY   = .00189361
INCLINATION    = 82.5018
RA_OF_ASC_NODE = 304.8566
ARG_OF_PERICENTER = 188.4323
MEAN_ANOMALY   = 171.6578

EPHEMERIS_TYPE = 0
CLASSIFICATION_TYPE = U
NORAD_CAT_ID   = 17912
ELEMENT_SET_NO = 999
REV_AT_EPOCH   = 7796
BSTAR          = .53819538E-4
MEAN_MOTION_DOT = .488E-5
MEAN_MOTION_DDOT = 0

CCSDS_OMM_VERS = 2.0
CREATION_DATE  = 
ORIGINATOR     = 

OBJECT_NAME    = COSMOS 1844
OBJECT_ID      = 1987-041A
CENTER_NAME    = EARTH
REF_FRAME      = TEME
TIME_SYSTEM    = UTC
MEAN_ELEMENT_THEORY = SGP/SGP4

EPOCH          = 2026-03-01T06:26:04.297920
MEAN_MOTION    = 14.14553223
ECCENTRICITY   = .00295633
INCLINATION    = 70.8991
RA_OF_ASC_NODE = 51.9384
ARG_OF_PERICENTER = 30.7122
MEAN_ANOMALY   = 329.5722

EPHEMERIS_TYPE = 0
CLASSIFICATION_TYPE = U
NORAD_CAT_ID   = 17973
ELEMENT_SET_NO = 999
REV_AT_EPOCH   = 239
BSTAR          = .12860026E-4
MEAN_MOTION_DOT = -.24E-6
MEAN_MOTION_DDOT = 0

CCSDS_OMM_VERS = 2.0
CREATION_DATE  = 
ORIGINATOR     = 

OBJECT_NAME    = SL-14 R/B
OBJECT_ID      = 1987-055B
CENTER_NAME    = EARTH
REF_FRAME      = TEME
TIME_SYSTEM    = UTC
MEAN_ELEMENT_THEORY = SGP/SGP4

EPOCH          = 2026-03-01T06:12:37.583712
MEAN_MOTION    = 14.85617320
ECCENTRICITY   = .00218112
INCLINATION    = 82.5026
RA_OF_ASC_NODE = 356.9748
ARG_OF_PERICENTER = 44.6224
MEAN_ANOMALY   = 315.6743

EPHEMERIS_TYPE = 0
CLASSIFICATION_TYPE = U
NORAD_CAT_ID   = 18153
ELEMENT_SET_NO = 999
REV_AT_EPOCH   = 6868
BSTAR          = .7701325E-4
MEAN_MOTION_DOT = .694E-5
MEAN_MOTION_DDOT = 0

CCSDS_OMM_VERS = 2.0
CREATION_DATE  = 
ORIGINATOR     = 

OBJECT_NAME    = COSMOS 1867
OBJECT_ID      = 1987-060A
CENTER_NAME    = EARTH
REF_FRAME      = TEME
TIME_SYSTEM    = UTC
MEAN_ELEMENT_THEORY = SGP/SGP4

EPOCH          = 2026-03-01T03:03:56.878560
MEAN_MOTION    = 14.31501394
ECCENTRICITY   = .00143717
INCLINATION    = 65.0122
RA_OF_ASC_NODE = 330.6823
ARG_OF_PERICENTER = 278.1306
MEAN_ANOMALY   = 81.8148

EPHEMERIS_TYPE = 0
CLASSIFICATION_TYPE = U
NORAD_CAT_ID   = 18187
ELEMENT_SET_NO = 999
REV_AT_EPOCH   = 1871
BSTAR          = .24161807E-4
MEAN_MOTION_DOT = -.36E-6
MEAN_MOTION_DDOT = 0

CCSDS_OMM_VERS = 2.0
CREATION_DATE  = 
ORIGINATOR     = 

OBJECT_NAME    = SL-14 R/B
OBJECT_ID      = 1988-001B
CENTER_NAME    = EARTH
REF_FRAME      = TEME
TIME_SYSTEM    = UTC
MEAN_ELEMENT_THEORY = SGP/SGP4

EPOCH          = 2026-02-28T22:00:01.024992
MEAN_MOTION    = 14.85514752
ECCENTRICITY   = .0016589
INCLINATION    = 82.5138
RA_OF_ASC_NODE = 203.6099
ARG_OF_PERICENTER = 267.2147
MEAN_ANOMALY   = 92.7171

EPHEMERIS_TYPE = 0
CLASSIFICATION_TYPE = U
NORAD_CAT_ID   = 18749
ELEMENT_SET_NO = 999
REV_AT_EPOCH   = 4072
BSTAR          = .71391E-4
MEAN_MOTION_DOT = .641E-5
MEAN_MOTION_DDOT = 0

