SL-14 R/B               
1 16792U 86046B   26060.18585664  .00000500  00000+0  54820-4 0  9993
2 16792  82.4786  88.2195 0021573 255.1382 104.7445 14.85580505125148
SL-14 R/B               
1 16882U 86055B   26060.24848905  .00000533  00000+0  58613-4 0  9990
2 16882  82.5217 134.6074 0018927   4.9210  53.1722 14.85633564118117
AJISAI (EGS)            
1 16908U 86061A   26060.28642214 -.00000083  00000+0  97809-4 0  9996
2 16908  50.0081 119.1886 0011243 265.3562 178.1299 12.44515510466959
COSMOS 1812             
1 17295U 87003A   26060.08552881  .01151834  95835-3  81083-3 0  9992
2 17295  82.4736 205.4843 0006191 288.5601  71.5013 16.16461233143096
SL-14 R/B               
1 17567U 87024B   26060.15503203  .00000466  00000+0  50373-4 0  9997
2 17567  82.5255 100.7873 0016735 290.7929  69.1494 14.86122458 86863
COSMOS 1833             
1 17589U 87027A   26060.22394687 -.00000126  00000+0 -41765-4 0  9996
2 17589  70.9233 343.8099 0024628 226.1993 133.7092 14.13056468  9121
SL-16 R/B               
1 17590U 87027B   26060.08097840 -.00000157  00000+0 -54214-4 0  9990
2 17590  71.0023 294.6369 0003837 160.4825 199.6446 14.17166961 14122
SL-14 R/B               
1 17912U 87038B   26060.14561089  .00000488  00000+0  53820-4 0  9995
2 17912  82.5018 304.8566 0018936 188.4323 171.6578 14.85360254 77966
COSMOS 1844             
1 17973U 87041A   26060.26810530 -.00000024  00000+0  12860-4 0  9993
2 17973  70.8991  51.9384 0029563  30.7122 329.5722 14.14553223  2397
SL-14 R/B               
1 18153U 87055B   26060.25876833  .00000694  00000+0  77013-4 0  9999
2 18153  82.5026 356.9748 0021811  44.6224 315.6743 14.85617320 68684
COSMOS 1867             
1 18187U 87060A   26060.12774165 -.00000036  00000+0  24162-4 0  9991
2 18187  65.0122 330.6823 0014371 278.1306  81.8148 14.31501394 18719
SL-14 R/B               
1 18749U 88001B   26059.91667853  .00000641  00000+0  71391-4 0  9998
2 18749  82.5138 203.6099 0016589 267.2147  92.7171 14.85514752 40727
